IRIDIUM 144             
1 43249U 18030A   25278.36619750 -.00000099  00000+0 -42472-4 0  9997
2 43249  86.3989  36.9113 0002037  90.5771 269.5658 14.34216935393612
IRIDIUM 149             
1 43250U 18030B   25278.37254132  .00000189  00000+0  60289-4 0  9993
2 43250  86.3990  36.8780 0002093  92.0637 268.0799 14.34215991393638
IRIDIUM 157             
1 43251U 18030C   25278.39156741  .00000257  00000+0  84847-4 0  9995
2 43251  86.3989  36.9176 0001998  99.7022 260.4399 14.34215512393611
IRIDIUM 140             
1 43252U 18030D   25278.41059507  .00000032  00000+0  45323-5 0  9999
2 43252  86.3989  36.9231 0002319  89.6121 270.5340 14.34217033393674
IRIDIUM 145             
1 43253U 18030E   25278.39791068  .00000055  00000+0  12572-4 0  9996
2 43253  86.3993  36.9012 0001998  82.0965 278.0457 14.34215263393600
IRIDIUM 146             
1 43254U 18030F   25278.37888359  .00000428  00000+0  14594-3 0  9994
2 43254  86.3991  36.9219 0002009  83.9724 276.1701 14.34216922393610
IRIDIUM 148             
1 43255U 18030G   25278.41693738  .00000248  00000+0  81324-4 0  9991
2 43255  86.3991  36.9452 0001880  94.1173 266.0238 14.34214804393652
IRIDIUM 142             
1 43256U 18030H   25278.38522350  .00000023  00000+0  11876-5 0  9996
2 43256  86.3991  36.8571 0001959  79.5076 280.6341 14.34214532393611
